[{"OBJECT_NAME":"STARLINK-1812","OBJECT_ID":"2020-088E","EPOCH":"2026-03-09T21:44:17.393568","MEAN_MOTION":15.15107348,"ECCENTRICITY":0.00027492,"INCLINATION":53.0793,"RA_OF_ASC_NODE":298.6686,"ARG_OF_PERICENTER":128.8313,"MEAN_ANOMALY":231.2926,"EPHEMERIS_TYPE":0,"CLASSIFICATION_TYPE":"U","NORAD_CAT_ID":47126,"ELEMENT_SET_NO":999,"REV_AT_EPOCH":29190,"BSTAR":0.0020820336,"MEAN_MOTION_DOT":0.00039367,"MEAN_MOTION_DDOT":0},{"OBJECT_NAME":"TITAN 4B R\/B","OBJECT_ID":"2000-047B","EPOCH":"2026-03-09T21:29:16.286496","MEAN_MOTION":15.09565128,"ECCENTRICITY":0.00386241,"INCLINATION":67.9901,"RA_OF_ASC_NODE":39.932,"ARG_OF_PERICENTER":35.1583,"MEAN_ANOMALY":325.2103,"EPHEMERIS_TYPE":0,"CLASSIFICATION_TYPE":"U","NORAD_CAT_ID":26474,"ELEMENT_SET_NO":999,"REV_AT_EPOCH":39294,"BSTAR":0.00034805691,"MEAN_MOTION_DOT":5.567e-5,"MEAN_MOTION_DDOT":0}]
